NORAD_CAT_ID,OBJECT_NAME,OBJECT_TYPE,EPOCH,MEAN_MOTION,ECCENTRICITY,INCLINATION,RA_OF_ASC_NODE,ARG_OF_PERICENTER,MEAN_ANOMALY,BSTAR,MEAN_MOTION_DOT,MEAN_MOTION_DDOT,TLE_LINE0,TLE_LINE1,TLE_LINE2,SEMIMAJOR_AXIS,PERIOD,APOGEE,PERIGEE,DECAYED
50832.0,STARLINK-3328,PAYLOAD,2022-10-06 02:24:24,15.08834497,0.0001591,53.2188,33.2431,59.165,300.9499,-7.9165e-05,-1.548e-05,0.0,0 STARLINK-3328,1 50832U 22001AF  22279.10028414 -.00001548  00000-0 -79165-4 0  9997,2 50832  53.2188  33.2431 0001591  59.1650 300.9499 15.08834497 42723,6917.897,95.438,540.863,538.6619999999998,0.0
50832.0,STARLINK-3328,PAYLOAD,2022-10-06 11:56:43,15.08834668,0.0001485,53.2188,31.459,59.1735,300.9404,-7.0682e-05,-1.413e-05,0.0,0 STARLINK-3328,1 50832U 22001AF  22279.49772460 -.00001413  00000-0 -70682-4 0  9992,2 50832  53.2188  31.4590 0001485  59.1735 300.9404 15.08834668 41539,6917.897,95.438,540.789,538.734,0.0
50832.0,STARLINK-3328,PAYLOAD,2022-10-06 15:07:29,15.08844318,0.0001792,53.2196,30.8622,52.5899,307.5256,-3.1154e-05,-7.84e-06,0.0,0 STARLINK-3328,1 50832U 22001AF  22279.63019837 -.00000784  00000-0 -31154-4 0  9991,2 50832  53.2196  30.8622 0001792  52.5899 307.5256 15.08844318 41559,6917.8669999999975,95.437,540.972,538.493,0.0
50832.0,STARLINK-3328,PAYLOAD,2022-10-07 13:22:52,15.08848069,0.000162,53.2187,26.701,54.5607,305.5536,0.00024003,3.535e-05,0.0,0 STARLINK-3328,1 50832U 22001AF  22280.55754903  .00003535  00000-0  24003-3 0  9993,2 50832  53.2187  26.7010 0001620  54.5607 305.5536 15.08848069 42943,6917.856,95.437,540.841,538.6,0.0
50832.0,STARLINK-3328,PAYLOAD,2022-10-08 02:05:58,15.08839548,0.0001943,53.2181,24.3236,46.5551,313.5603,0.00018471,2.653e-05,0.0,0 STARLINK-3328,1 50832U 22001AF  22281.08747923  .00002653  00000-0  18471-3 0  9998,2 50832  53.2181  24.3236 0001943  46.5551 313.5603 15.08839548 43024,6917.882,95.438,541.091,538.403,0.0
50832.0,STARLINK-3328,PAYLOAD,2022-10-08 13:13:39,15.08840635,0.0001737,53.2187,22.2411,47.4723,312.6416,0.00018472,2.653e-05,0.0,0 STARLINK-3328,1 50832U 22001AF  22281.55115519  .00002653  00000-0  18472-3 0  9991,2 50832  53.2187  22.2411 0001737  47.4723 312.6416 15.08840635 41843,6917.878000000002,95.438,540.945,538.5419999999998,0.0
50832.0,STARLINK-3328,PAYLOAD,2022-10-09 05:07:31,15.08845555,0.0001678,53.2186,19.2673,56.1231,303.9921,-2.2574e-05,-6.47e-06,0.0,0 STARLINK-3328,1 50832U 22001AF  22282.21355538 -.00000647  00000-0 -22574-4 0  9994,2 50832  53.2186  19.2673 0001678  56.1231 303.9921 15.08845555 43193,6917.863,95.437,540.889,538.568,0.0
50832.0,STARLINK-3328,PAYLOAD,2022-10-09 13:04:26,15.08843187,0.0001706999999999,53.2186,17.7806,50.908,309.2064,-4.5422e-05,-1.011e-05,0.0,0 STARLINK-3328,1 50832U 22001AF  22282.54475645 -.00001011  00000-0 -45422-4 0  9995,2 50832  53.2186  17.7806 0001707  50.9080 309.2064 15.08843187 41993,6917.871,95.437,540.9169999999998,538.555,0.0
50832.0,STARLINK-3328,PAYLOAD,2022-10-10 06:33:40,15.08844736,0.0001704,53.2186,14.5099,50.0539,310.0603,8.410899999999999e-05,1.051e-05,0.0,0 STARLINK-3328,1 50832U 22001AF  22283.27339017  .00001051  00000-0  84109-4 0  9995,2 50832  53.2186  14.5099 0001704  50.0539 310.0603 15.08844736 43351,6917.866,95.437,540.91,538.552,0.0
50832.0,STARLINK-3328,PAYLOAD,2022-10-10 12:55:14,15.0883375,0.0001665,53.219,13.3204,49.051,311.0626,-2.0132e-05,-6.08e-06,0.0,0 STARLINK-3328,1 50832U 22001AF  22283.53835948 -.00000608  00000-0 -20132-4 0  9993,2 50832  53.2190  13.3204 0001665  49.0510 311.0626 15.08833750 42140,6917.899,95.438,540.9159999999998,538.613,0.0
50832.0,STARLINK-3328,PAYLOAD,2022-10-11 11:10:40,15.08809155,0.00018,53.2186,9.158,52.0398,308.0757,-0.00017616,-3.088e-05,0.0,0 STARLINK-3328,1 50832U 22001AF  22284.46574533 -.00003088  00000-0 -17616-3 0  9993,2 50832  53.2186   9.1580 0001800  52.0398 308.0757 15.08809155 43531,6917.975,95.44,541.085,538.594,0.0
50832.0,STARLINK-3328,PAYLOAD,2022-10-12 04:39:54,15.0881581,0.0001625,53.2188,5.885,51.7222,308.3916,-5.0447e-05,-1.09e-05,0.0,0 STARLINK-3328,1 50832U 22001AF  22285.19438566 -.00001090  00000-0 -50447-4 0  9990,2 50832  53.2188   5.8850 0001625  51.7222 308.3916 15.08815810 43640,6917.954000000002,95.439,540.943,538.695,0.0
50832.0,STARLINK-3328,PAYLOAD,2022-10-12 12:36:49,15.08829756,0.0001726,53.2195,4.4011,52.3724,307.7425,6.3044e-05,7.15e-06,0.0,0 STARLINK-3328,1 50832U 22001AF  22285.52557718  .00000715  00000-0  63044-4 0  9996,2 50832  53.2195   4.4011 0001726  52.3724 307.7425 15.08829756 42447,6917.9119999999975,95.438,540.971,538.5830000000002,0.0
50832.0,STARLINK-3328,PAYLOAD,2022-10-13 10:52:14,15.0882043,0.0001807,53.2191,0.2373,48.7222,311.3925,0.00018837,2.71e-05,0.0,0 STARLINK-3328,1 50832U 22001AF  22286.45294739  .00002710  00000-0  18837-3 0  9996,2 50832  53.2191   0.2373 0001807  48.7222 311.3925 15.08820430 43830,6917.94,95.439,541.055,538.555,0.0
50832.0,STARLINK-3328,PAYLOAD,2022-10-13 23:35:18,15.08843784,0.0001689,53.2189,357.8581,51.7626,308.3518,0.00016068,2.27e-05,0.0,0 STARLINK-3328,1 50832U 22001AF  22286.98285791  .00002270  00000-0  16068-3 0  9997,2 50832  53.2189 357.8581 0001689  51.7626 308.3518 15.08843784 43919,6917.869000000002,95.437,540.9019999999998,538.565,0.0
50832.0,STARLINK-3328,PAYLOAD,2022-10-14 12:18:23,15.08845607,0.0001664,53.2181,355.4784,61.0885,299.0274,0.00015694,2.211e-05,0.0,0 STARLINK-3328,1 50832U 22001AF  22287.51277578  .00002211  00000-0  15694-3 0  9990,2 50832  53.2181 355.4784 0001664  61.0885 299.0274 15.08845607 42745,6917.863,95.437,540.879,538.577,0.0
50832.0,STARLINK-3328,PAYLOAD,2022-10-14 23:26:06,15.08843828,0.0002256999999999,53.2184,353.3988,39.5782,320.5375,3.6576e-05,2.94e-06,0.0,0 STARLINK-3328,1 50832U 22001AF  22287.97646024  .00000294  00000-0  36576-4 0  9998,2 50832  53.2184 353.3988 0002257  39.5782 320.5375 15.08843828 44068,6917.869000000002,95.437,541.295,538.172,0.0
50832.0,STARLINK-3328,PAYLOAD,2022-10-15 12:09:10,15.08848067,0.0001793,53.2183,351.0177,49.4967,310.6182,0.00012438,1.692e-05,0.0,0 STARLINK-3328,1 50832U 22001AF  22288.50637144  .00001692  00000-0  12438-3 0  9994,2 50832  53.2183 351.0177 0001793  49.4967 310.6182 15.08848067 44146,6917.856,95.437,540.961,538.48,0.0
50832.0,STARLINK-3328,PAYLOAD,2022-10-16 04:03:02,15.08841299,0.0001895,53.2186,348.0454,48.5731,311.5424,-4.0066e-05,-9.26e-06,0.0,0 STARLINK-3328,1 50832U 22001AF  22289.16877944 -.00000926  00000-0 -40066-4 0  9991,2 50832  53.2186 348.0454 0001895  48.5731 311.5424 15.08841299 44245,6917.876,95.437,541.052,538.43,0.0
50832.0,STARLINK-3328,PAYLOAD,2022-10-16 10:24:34,15.08843689,0.0001883,53.2186,346.8563,49.6826,310.4331,-1.9142e-05,-5.93e-06,0.0,0 STARLINK-3328,1 50832U 22001AF  22289.43373649 -.00000593  00000-0 -19142-4 0  9995,2 50832  53.2186 346.8563 0001883  49.6826 310.4331 15.08843689 43032,6917.869000000002,95.437,541.0369999999998,538.431,0.0
50832.0,STARLINK-3328,PAYLOAD,2022-10-17 03:53:50,15.08826404,0.0001786,53.2194,343.5858,48.0324,312.082,2.2689e-05,7.3e-07,0.0,0 STARLINK-3328,1 50832U 22001AF  22290.16238745  .00000073  00000-0  22689-4 0  9995,2 50832  53.2194 343.5858 0001786  48.0324 312.0820 15.08826404 44397,6917.922,95.438,541.0219999999998,538.5509999999998,0.0
50832.0,STARLINK-3328,PAYLOAD,2022-10-17 10:15:22,15.08834084,0.0001869,53.2187,342.3964,49.4699,310.6456,-1.8328e-06,-3.17e-06,0.0,0 STARLINK-3328,1 50832U 22001AF  22290.42734433 -.00000317  00000-0 -18328-5 0  9998,2 50832  53.2187 342.3964 0001869  49.4699 310.6456 15.08834084 44433,6917.898,95.438,541.056,538.471,0.0
50832.0,STARLINK-3328,PAYLOAD,2022-10-18 08:30:46,15.08836162,0.0001913,53.2188,338.2337,47.9554,312.1601,0.00012066,1.633e-05,0.0,0 STARLINK-3328,1 50832U 22001AF  22291.35470042  .00001633  00000-0  12066-3 0  9995,2 50832  53.2188 338.2337 0001913  47.9554 312.1601 15.08836162 44578,6917.892,95.438,541.081,538.434,0.0
50832.0,STARLINK-3328,PAYLOAD,2022-10-18 19:38:29,15.08827668,0.0001908,53.2183,336.1522,47.3994,312.7159,-1.6119e-05,-5.45e-06,0.0,0 STARLINK-3328,1 50832U 22001AF  22291.81839177 -.00000545  00000-0 -16119-4 0  9991,2 50832  53.2183 336.1522 0001908  47.3994 312.7159 15.08827668 43396,6917.918000000002,95.438,541.1030000000002,538.4630000000002,0.0
50832.0,STARLINK-3328,PAYLOAD,2022-10-19 02:00:01,15.08830279,0.000193,53.2189,334.9603,50.9853,309.1311,-3.1462e-06,-3.38e-06,0.0,0 STARLINK-3328,1 50832U 22001AF  22292.08335158 -.00000338  00000-0 -31462-5 0  9990,2 50832  53.2189 334.9603 0001930  50.9853 309.1311 15.08830279 44682,6917.91,95.438,541.11,538.44,0.0
50832.0,STARLINK-3328,PAYLOAD,2022-10-19 08:21:33,15.0883331,0.0001924,53.2181,333.7729,46.7416,313.3736,0.00010982,1.46e-05,0.0,0 STARLINK-3328,1 50832U 22001AF  22292.34830710  .00001460  00000-0  10982-3 0  9990,2 50832  53.2181 333.7729 0001924  46.7416 313.3736 15.08833310 44723,6917.901,95.438,541.097,538.435,0.0
50832.0,STARLINK-3328,PAYLOAD,2022-10-20 09:47:44,15.08788501,0.0002327,53.2177,329.0129,47.4089,312.7099,0.0007647,0.00011886,0.0,0 STARLINK-3328,1 50832U 22001AF  22293.40815269  .00011886  00000-0  76470-3 0  9997,2 50832  53.2177 329.0129 0002327  47.4089 312.7099 15.08788501 43637,6918.038000000001,95.441,541.513,538.293,0.0
50832.0,STARLINK-3328,PAYLOAD,2022-10-20 19:20:02,15.08841139,0.0002084,53.2179,327.2309,43.9834,316.1324,0.00013548,1.869e-05,0.0,0 STARLINK-3328,1 50832U 22001AF  22293.80558113  .00001869  00000-0  13548-3 0  9990,2 50832  53.2179 327.2309 0002084  43.9834 316.1324 15.08841139 43690,6917.877,95.437,541.184,538.3,0.0
50832.0,STARLINK-3328,PAYLOAD,2022-10-21 11:13:53,15.088467,0.0002104,53.2177,324.2575,43.5164,316.5994,1.2856e-05,-8.4e-07,0.0,0 STARLINK-3328,1 50832U 22001AF  22294.46798111 -.00000084  00000-0  12856-4 0  9998,2 50832  53.2177 324.2575 0002104  43.5164 316.5994 15.08846700 43792,6917.86,95.437,541.18,538.269,0.0
